{"version": 0.6, "generator": "Overpass API 0.7.61.5 4133829e", "osm3s": {"timestamp_osm_base": "2023-11-27T12:17:00Z", "copyright": "The data included in this document is from www.openstreetmap.org. The data is made available under ODbL."}, "elements": [{"type": "node", "id": 244038459, "lat": 48.1498059, "lon": 11.5635544, "tags": {"addr:city": "M\u00fcnchen", "addr:country": "DE", "addr:housenumber": "21", "addr:postcode": "80333", "addr:street": "Steinheilstra\u00dfe", "amenity": "fast_food", "cuisine": "sushi", "diet:vegetarian": "yes", "indoor_seating": "yes", "name": "Little Tokyo", "opening_hours": "Mo-Fr 11:00-22:00; Su 12:00-22:00", "outdoor_seating": "yes", "wheelchair": "limited"}}, {"type": "node", "id": 315919420, "lat": 48.1490465, "lon": 11.5592221, "tags": {"addr:city": "M\u00fcnchen", "addr:housenumber": "24", "addr:postcode": "80333", "addr:street": "Rottmannstra\u00dfe", "amenity": "fast_food", "cuisine": "sushi;asian", "delivery": "yes", "delivery:partner": "Deliveroo;Foodora", "diet:vegetarian": "yes", "name": "Sushi Niwa und Wok", "opening_hours": "Mo-Fr 11:00-14:30,17:00-22:00; Sa 17:00-22:00; Su,PH 13:00-22:00", "phone": "+49 89 52350820", "takeaway": "yes", "website": "https://www.bringbutler.de/homepage_NiwaWok_0#Startseite", "wheelchair": "no"}}, {"type": "node", "id": 332790697, "lat": 48.1497454, "lon": 11.5607384, "tags": {"addr:city": "M\u00fcnchen", "addr:country": "DE", "addr:housenumber": "64", "addr:postcode": "80333", "addr:street": "Gabelsbergerstra\u00dfe", "amenity": "fast_food", "cuisine": "pizza", "drive_through": "no", "name": "Pizza Avanti", "opening_hours": "Mo-Su 10:30-00:00", "wheelchair": "yes"}}, {"type": "node", "id": 366122901, "lat": 48.1575363, "lon": 11.5610444, "tags": {"addr:city": "M\u00fcnchen", "addr:country": "DE", "addr:housenumber": "144", "addr:postcode": "80797", "addr:street": "Georgenstra\u00dfe", "amenity": "fast_food", "cuisine": "thai", "name": "Magic Woks", "opening_hours": "Mo-Fr 11:00-14:30,17:00-22:30; Su 12:00-22:30; Sa off", "phone": "+49 89 1238666", "website": "https://gold-staebchen.de/", "wheelchair": "limited"}}, {"type": "node", "id": 426878878, "lat": 48.1495219, "lon": 11.5724499, "tags": {"addr:city": "M\u00fcnchen", "addr:country": "DE", "addr:housenumber": "46", "addr:postcode": "80799", "addr:street": "Barer Stra\u00dfe", "amenity": "fast_food", "contact:phone": "+49 89 2737 1334", "cuisine": "indian", "indoor_seating": "yes", "name": "Indisches FastFood", "opening_hours": "Mo-Fr,Su 11:30-22:00; Sa 16:00-22:00", "outdoor_seating": "no", "wheelchair": "limited"}}, {"type": "node", "id": 433435689, "lat": 48.1523701, "lon": 11.5558368, "tags": {"addr:city": "M\u00fcnchen", "addr:housenumber": "125", "addr:postcode": "80335", "addr:street": "Dachauer Stra\u00dfe", "amenity": "fast_food", "brand": "Call a Pizza", "brand:wikidata": "Q1027107", "cuisine": "pizza", "delivery": "yes", "diet:vegetarian": "yes", "name": "Call a Pizza", "opening_hours": "Mo-Su 10:30-22:30", "takeaway": "yes", "wheelchair": "limited"}}, {"type": "node", "id": 433732737, "lat": 48.1502922, "lon": 11.5729805, "tags": {"addr:city": "M\u00fcnchen", "addr:country": "DE", "addr:housenumber": "56", "addr:postcode": "80799", "addr:street": "Barer Stra\u00dfe", "amenity": "fast_food", "cuisine": "japanese", "diet:vegan": "yes", "diet:vegetarian": "yes", "email": "Info@phoyou.de", "indoor_seating": "yes", "name": "PHO YOU", "opening_hours": "Mo-Su 11:30-20:00", "outdoor_seating": "yes", "phone": "+49 89 46131889", "website": "https://www.phoyou.de", "wheelchair": "yes"}}, {"type": "node", "id": 442683434, "lat": 48.1580647, "lon": 11.575464, "tags": {"addr:city": "M\u00fcnchen", "addr:country": "DE", "addr:housenumber": "47", "addr:postcode": "80801", "addr:street": "Kurf\u00fcrstenstra\u00dfe", "amenity": "fast_food", "contact:email": "info@pizza-monaco24.de", "contact:phone": "+49 89 272 1234;+49 89 2880 7954", "contact:website": "https://www.lieferando.de/speisekarte/monaco-pizza-heimservice-80801", "cuisine": "pizza", "delivery": "yes", "indoor_seating": "no", "name": "Monaco Pizza", "opening_hours": "Mo-Su 17:00-02:45", "outdoor_seating": "no", "takeaway": "yes", "wheelchair": "no", "wheelchair:description": "Stufe"}}, {"type": "node", "id": 452068328, "lat": 48.1529084, "lon": 11.5743229, "tags": {"addr:city": "M\u00fcnchen", "addr:country": "DE", "addr:housenumber": "65", "addr:postcode": "80799", "addr:street": "Barer Stra\u00dfe", "amenity": "fast_food", "contact:website": "https://www.torros-grill-house.de/", "cuisine": "turkish", "diet:vegetarian": "yes", "drive_through": "no", "name": "Torros Grill House", "opening_hours": "Mo-Sa 12:00-21:00; Su 14:00-21:30", "outdoor_seating": "yes", "smoking": "no", "takeaway": "yes", "wheelchair": "limited"}}, {"type": "node", "id": 639114672, "lat": 48.1494665, "lon": 11.5671026, "tags": {"amenity": "fast_food", "drive_through": "no", "fixme": "opening hours on http://www.studentenwerk-muenchen.de/mensa/standorte-und-oeffnungszeiten/muenchen/ are different", "name": "StuCaf\u00e9 Audimax", "opening_hours": "Mo-Th 09:00-16:00; Fr 09:00-15:00", "payment:ep_stwm_legic": "yes", "wheelchair": "yes"}}, {"type": "node", "id": 672767949, "lat": 48.1475878, "lon": 11.5617237, "tags": {"amenity": "fast_food", "check_date:opening_hours": "2023-07-11", "cuisine": "superfood", "name": "Bowls Blenders", "opening_hours": "Mo-Fr 09:00-20:00; Sa 10:30-17:00", "opening_hours:signed": "no", "wheelchair": "yes"}}, {"type": "node", "id": 712866385, "lat": 48.1430589, "lon": 11.5562324, "tags": {"amenity": "fast_food", "cuisine": "vietnamese", "level": "0", "name": "asian corner", "opening_hours": "Mo-Sa 09:00-19:00; PH closed", "outdoor_seating": "yes", "smoking": "outside", "source": "survey", "takeaway": "yes", "wheelchair": "yes"}}, {"type": "node", "id": 863216511, "lat": 48.1443462, "lon": 11.5595901, "tags": {"amenity": "fast_food", "check_date:opening_hours": "2023-11-23", "cuisine": "kebab", "diet:vegetarian": "yes", "name": "D\u00f6ner De Luxe", "opening_hours": "Mo-Sa 09:00-22:00", "wheelchair": "no"}}, {"type": "node", "id": 1020955837, "lat": 48.1421999, "lon": 11.550909, "tags": {"addr:city": "M\u00fcnchen", "addr:housenumber": "4", "addr:postcode": "80335", "addr:street": "Hackerbr\u00fccke", "air_conditioning": "no", "amenity": "fast_food", "brand": "McDonald's", "brand:wikidata": "Q38076", "brand:wikipedia": "en:McDonald's", "check_date:opening_hours": "2022-06-03", "contact:phone": "+49 89 511 149 22", "contact:website": "https://www.mcdonalds.com/de/de-de/restaurant-suche.html/l/munchen/hackerbrucke-4/1719", "cuisine": "burger", "diet:meat": "yes", "diet:vegetarian": "yes", "internet_access": "wlan", "layer": "1", "level": "1", "name": "McDonald's", "opening_hours": "Mo 08:00-24:00; Tu 08:00-01:00; We 08:00-20:00; Th 08:00-24:00; Fr-Sa 08:00-06:00; Su 09:00-24:00", "outdoor_seating": "no", "smoking": "no", "takeaway": "yes", "wheelchair": "yes"}}, {"type": "node", "id": 1041461113, "lat": 48.1508175, "lon": 11.5574945, "tags": {"amenity": "fast_food", "cuisine": "kebab", "diet:vegetarian": "yes", "name": "Bra\u2019s D\u00f6ner", "opening_hours": "Mo-Sa 10:00-20:00", "wheelchair": "yes"}}, {"type": "node", "id": 1041461428, "lat": 48.1508439, "lon": 11.5559277, "tags": {"amenity": "fast_food", "check_date:opening_hours": "2021-09-28", "contact:phone": "+498952389555", "cuisine": "italian", "delivery": "yes", "diet:vegetarian": "no", "name": "Pizza La Dispoli", "opening_hours": "Mo-Su,PH 11:00-22:45", "takeaway": "yes"}}, {"type": "node", "id": 1062428751, "lat": 48.1435806, "lon": 11.5601696, "tags": {"addr:city": "M\u00fcnchen", "addr:country": "DE", "addr:housenumber": "20", "addr:postcode": "80335", "addr:street": "Dachauer Stra\u00dfe", "amenity": "fast_food", "contact:phone": "+49 89 55079764", "cuisine": "asian", "indoor_seating": "yes", "name": "Krua Thai", "opening_hours": "Mo-Fr 11:00-22:00; Sa,Su 13:00-22:00", "outdoor_seating": "yes", "wheelchair": "no"}}, {"type": "node", "id": 1131919541, "lat": 48.1421918, "lon": 11.5508017, "tags": {"addr:city": "M\u00fcnchen", "addr:country": "DE", "addr:housenumber": "4", "addr:postcode": "80335", "addr:street": "Hackerbr\u00fccke", "amenity": "fast_food", "contact:website": "https://www.muenchen-zob.de/de/places/oliva", "cuisine": "kebab", "diet:vegan": "yes", "diet:vegetarian": "yes", "layer": "1", "level": "1", "name": "Oliva", "opening_hours": "Mo-Th 10:00-20:00; Fr,Sa 11:00-23:00, Su off", "toilets:wheelchair": "no", "wheelchair": "yes"}}, {"type": "node", "id": 1131922066, "lat": 48.1422806, "lon": 11.5508837, "tags": {"amenity": "fast_food", "check_date:opening_hours": "2022-06-03", "contact:website": "https://kaimug.de/", "cuisine": "thai", "diet:vegan": "yes", "diet:vegetarian": "yes", "layer": "1", "level": "1", "name": "Kaimug Box", "opening_hours": "Mo-Sa 10:00-22:00", "wheelchair": "limited"}}, {"type": "node", "id": 1131939138, "lat": 48.1422907, "lon": 11.5507652, "tags": {"amenity": "fast_food", "brand": "Pommesfreunde", "brand:wikidata": "Q117083946", "contact:email": "hallo@pommes-freunde.de", "contact:phone": "+49 89 28675719", "contact:website": "https://pommesfreunde.de/", "cuisine": "burger", "level": "1", "name": "Pommesfreunde", "old_name": "Paral\u00eda", "opening_hours": "Mo-Fr 11:00-18:00; Sa-Su, PH off", "wheelchair": "yes"}}, {"type": "node", "id": 1481072992, "lat": 48.1568823, "lon": 11.5623067, "tags": {"addr:city": "M\u00fcnchen", "addr:country": "DE", "addr:postcode": "80797", "addr:street": "Schlei\u00dfheimer Stra\u00dfe", "amenity": "fast_food", "cuisine": "kebab", "name": "Saray", "opening_hours": "Mo-Fr 10:00-22:00; Sa 10:00-21:00; Su 12:00-21:00", "wheelchair": "no"}}, {"type": "node", "id": 1508637647, "lat": 48.1481139, "lon": 11.5569456, "tags": {"amenity": "fast_food", "brand": "dean&david", "brand:wikidata": "Q66132404", "cuisine": "salad;sandwich", "delivery": "yes", "delivery:partner": "Foodora", "diet:vegan": "yes", "diet:vegetarian": "yes", "internet_access:fee": "no", "name": "dean&david", "opening_hours": "Mo-Fr 09:00-20:30", "outdoor_seating": "yes", "takeaway": "yes", "website": "https://deananddavid.com/nymphenburger-hoefe-muenchen/", "wheelchair": "yes"}}, {"type": "node", "id": 1567316538, "lat": 48.1488841, "lon": 11.562974, "tags": {"addr:city": "M\u00fcnchen", "addr:housenumber": "63", "addr:postcode": "80333", "addr:street": "Gabelsbergerstra\u00dfe", "amenity": "fast_food", "brand": "Swing Kitchen", "brand:wikidata": "Q116943226", "check_date": "2023-02-23", "contact:website": "https://www.swingkitchen.com/", "cuisine": "burger", "diet:vegan": "only", "indoor_seating": "yes", "name": "Swing Kitchen", "opening_hours": "Mo-Su, PH 11:00-22:00", "outdoor_seating": "yes", "payment:cash": "yes", "payment:girocard": "yes", "start_date": "2023-02-15", "takeaway": "yes", "toilets": "yes", "toilets:access": "customers", "wheelchair": "yes"}}, {"type": "node", "id": 1567316540, "lat": 48.1492277, "lon": 11.5627982, "tags": {"amenity": "fast_food", "brand": "McDonald's", "brand:wikidata": "Q38076", "brand:wikipedia": "en:McDonald's", "cuisine": "burger", "indoor_seating": "yes", "internet_access": "wlan", "name": "McDonald's", "opening_hours": "PH,Su-Th 09:00-02:00, Fr,Sa 09:00-05:00", "outdoor_seating": "yes", "takeaway": "yes", "wheelchair": "no"}}, {"type": "node", "id": 1573738310, "lat": 48.1508256, "lon": 11.5744167, "tags": {"addr:city": "M\u00fcnchen", "addr:country": "DE", "addr:housenumber": "44", "addr:postcode": "80799", "addr:street": "Schellingstra\u00dfe", "amenity": "fast_food", "cuisine": "kebab", "name": "OKRA Gem\u00fcsekebap", "name:de": "OKRA Gem\u00fcsekebap", "opening_hours": "Mo-Sa 11:00-21:00", "operator": "Ayad Nisani", "phone": "+49 89 20942337", "wheelchair": "no"}}, {"type": "node", "id": 1702989153, "lat": 48.1516406, "lon": 11.5548428, "tags": {"addr:city": "M\u00fcnchen", "addr:country": "DE", "addr:housenumber": "32", "addr:postcode": "80335", "addr:street": "Erzgie\u00dfereistra\u00dfe", "amenity": "fast_food", "cuisine": "japanese", "name": "Take don", "opening_hours": "Mo-Fr 11:30-16:00; Sa, Su OFF", "phone": "+49 89 2371 0781"}}, {"type": "node", "id": 1706975957, "lat": 48.1535882, "lon": 11.5543805, "tags": {"amenity": "fast_food", "cuisine": "pizza", "name": "rastY's PIZZA TIME", "takeaway": "yes"}}, {"type": "node", "id": 1770341787, "lat": 48.148607, "lon": 11.5735657, "tags": {"addr:city": "M\u00fcnchen", "addr:country": "DE", "addr:housenumber": "56", "addr:postcode": "80333", "addr:street": "Theresienstra\u00dfe", "amenity": "fast_food", "contact:phone": "+49-89-24290095", "contact:website": "https://www.staro-pizza-muenchen.de/", "cuisine": "pizza", "delivery": "yes", "diet:halal": "yes", "drive_through": "no", "indoor_seating": "yes", "name": "Staro Pizza & Pasta", "opening_hours": "Mo-Su 11:00-22:45", "outdoor_seating": "yes", "takeaway": "yes", "toilets:wheelchair": "no", "wheelchair": "no"}}, {"type": "node", "id": 1780393996, "lat": 48.1534776, "lon": 11.5545278, "tags": {"amenity": "fast_food", "cuisine": "kebab", "name": "Victorian Paradise Kebap", "opening_hours": "Mo-Fr 10:00-20:00; Sa 11:00-20:00"}}, {"type": "node", "id": 2335055401, "lat": 48.1533245, "lon": 11.5654711, "tags": {"addr:city": "M\u00fcnchen", "addr:country": "DE", "addr:housenumber": "104", "addr:postcode": "80798", "addr:street": "Schellingstra\u00dfe", "amenity": "fast_food", "check_date:opening_hours": "2022-11-29", "delivery": "yes", "delivery:partner": "Foodora", "drive_through": "no", "fax": "+49 89 51777806", "indoor_seating": "yes", "name": "pureburrito", "opening_hours": "Mo-Sa 11:00-21:00; Su 12:00-21:00", "outdoor_seating": "yes", "phone": "+49 89 51777805", "toilets:wheelchair": "no", "website": "https://www.pureburrito.com/", "wheelchair": "no"}}, {"type": "node", "id": 2515456937, "lat": 48.149765, "lon": 11.5606683, "tags": {"addr:city": "M\u00fcnchen", "addr:country": "DE", "addr:housenumber": "60", "addr:postcode": "80333", "addr:street": "Gabelsbergerstra\u00dfe", "amenity": "fast_food", "contact:instagram": "https://www.instagram.com/indianer_coffee", "contact:phone": "+49 89 578 776 77", "contact:website": "https://indianercoffee-germany.eatbu.com/?lang=de", "cuisine": "colombian", "name": "Indianer Coffee", "opening_hours:signed": "no", "payment:mastercard": "yes", "payment:visa": "yes", "shop": "coffee", "takeaway": "yes", "wheelchair": "limited"}}, {"type": "node", "id": 2694322398, "lat": 48.1501818, "lon": 11.5637871, "tags": {"addr:city": "M\u00fcnchen", "addr:housenumber": "74", "addr:postcode": "80333", "addr:street": "Augustenstra\u00dfe", "amenity": "fast_food", "brand": "Burrito Company", "brand:wikidata": "Q114958215", "check_date": "2022-12-20", "check_date:opening_hours": "2023-10-29", "cuisine": "mexican", "indoor_seating": "yes", "internet_access": "wlan", "name": "Burrito Company", "opening_hours": "Mo-Su 11:30-21:30", "outdoor_seating": "no", "payment:credit_cards": "yes", "payment:debit_cards": "yes", "phone": "+49 89 2196 5986", "takeaway": "yes", "website": "https://www.burrito-company.de/", "wheelchair": "no"}}, {"type": "node", "id": 2939333055, "lat": 48.1557111, "lon": 11.5618726, "tags": {"addr:city": "M\u00fcnchen", "addr:country": "DE", "addr:housenumber": "98", "addr:postcode": "80797", "addr:street": "Schlei\u00dfheimer Stra\u00dfe", "amenity": "fast_food", "cuisine": "asian", "delivery": "yes", "name": "Tasty Wok & Sushi", "opening_hours": "Mo-Sa 11:00-14:15,17:00-21:45; Tu off; Su,PH 11:00-21:45", "operator": "Liuban Cheng", "phone": "+49 89 18928262", "url": "https://www.tasty-wok-sushi.de/", "website": "https://www.tastywoksushi.de/", "wheelchair": "no"}}, {"type": "node", "id": 3201232504, "lat": 48.1508761, "lon": 11.5647666, "tags": {"addr:city": "M\u00fcnchen", "addr:country": "DE", "addr:housenumber": "57", "addr:postcode": "80333", "addr:street": "Theresienstra\u00dfe", "amenity": "fast_food", "check_date:opening_hours": "2022-08-24", "cuisine": "kebab", "diet:vegan": "yes", "diet:vegetarian": "yes", "name": "Sindbad Kebab & Grillhaus", "opening_hours": "Mo-Su 08:00-22:00", "outdoor_seating": "yes", "smoking": "outside", "takeaway": "yes", "wheelchair": "no"}}, {"type": "node", "id": 3646554065, "lat": 48.1496439, "lon": 11.5725812, "tags": {"addr:city": "M\u00fcnchen", "addr:housenumber": "48", "addr:postcode": "80799", "addr:street": "Barer Stra\u00dfe", "amenity": "fast_food", "cuisine": "asian", "indoor_seating": "yes", "name": "Asian Street Food Bep Bu", "opening_hours": "Mo-Sa 12:00-15:00,17:00-22:30; Su 12:00-22:00", "outdoor_seating": "yes", "phone": "+49 89 20061014", "website": "https://www.bepbu.info/", "wheelchair": "limited"}}, {"type": "node", "id": 3895509716, "lat": 48.1465414, "lon": 11.5593173, "tags": {"addr:city": "M\u00fcnchen", "addr:country": "DE", "addr:housenumber": "54", "addr:postcode": "80335", "addr:street": "Dachauer Stra\u00dfe", "amenity": "fast_food", "contact:email": "bestellung@latarti.de", "contact:phone": "+49 89 548 839 66", "contact:website": "http://latarti.de/", "cuisine": "french", "diet:vegetarian": "yes", "indoor_seating": "yes", "name": "La Tarti", "opening_hours": "Mo-Fr 08:00-15:00", "outdoor_seating": "yes", "wheelchair": "limited"}}, {"type": "node", "id": 4097226361, "lat": 48.1510718, "lon": 11.5647572, "tags": {"addr:city": "M\u00fcnchen", "addr:country": "DE", "addr:housenumber": "122", "addr:postcode": "80333", "addr:street": "Theresienstra\u00dfe", "amenity": "fast_food", "contact:website": "https://www.kartoffelkoenig.com/", "diet:vegan": "yes", "diet:vegetarian": "yes", "name": "Kartoffelk\u00f6nig", "opening_hours": "Mo-Sa 10:00-20:00; PH off", "smoking": "no", "takeaway": "yes", "wheelchair": "limited"}}, {"type": "node", "id": 4263093660, "lat": 48.1507284, "lon": 11.5574355, "tags": {"amenity": "fast_food", "cuisine": "sushi", "diet:vegetarian": "yes", "name": "Oshikuru", "opening_hours:signed": "no", "phone": "+49 89 23752840", "website": "https://www.oshikurumuenchen.de/"}}, {"type": "node", "id": 4322459579, "lat": 48.155259, "lon": 11.5528765, "tags": {"amenity": "fast_food", "check_date": "2022-10-23", "cuisine": "kebab", "diet:halal": "only", "name": "Habib\u2018s Imbiss", "opening_hours": "Mo-Sa 11:00-19:00", "phone": "+49 89 12712439", "website": "http://habibsimbiss.de"}}, {"type": "node", "id": 4448441197, "lat": 48.1538915, "lon": 11.5539966, "tags": {"amenity": "fast_food", "check_date:opening_hours": "2023-05-23", "cuisine": "vietnamese", "name": "iMango", "opening_hours": "Mo-Sa 10:00-20:00", "phone": "+49 89 17103500"}}, {"type": "node", "id": 4448441198, "lat": 48.1537957, "lon": 11.5541347, "tags": {"addr:housenumber": "151", "addr:postcode": "80335", "addr:street": "Dachauer Stra\u00dfe", "amenity": "fast_food", "cuisine": "kebab", "diet:halal": "yes", "drive_through": "no", "highchair": "no", "level": "0", "name": "SPRING TIME", "opening_hours": "Mo-Sa 10:00-20:00", "outdoor_seating": "yes", "payment:cash": "yes", "payment:coins": "yes", "payment:notes": "yes", "phone": "+4917635348431", "smoking": "no", "takeaway": "yes", "wheelchair": "yes", "wheelchair:description": "Durchreiche neben dem Eingang barrierefrei;Ladeninneres nicht stufenfrei erreichbar"}}, {"type": "node", "id": 4470479390, "lat": 48.1504855, "lon": 11.5661476, "tags": {"amenity": "fast_food", "check_date": "2022-11-18", "contact:phone": "+49 1777194464", "cuisine": "turkish;kebab;pizza", "indoor_seating": "yes", "internet_access": "no", "name": "Djudi", "opening_hours": "Mo-Su 08:00-22:30", "operator": "Hasso", "outdoor_seating": "yes", "payment:credit_cards": "yes", "toilets": "yes", "toilets:access": "customers", "wheelchair": "no"}}, {"type": "node", "id": 4470479393, "lat": 48.1514124, "lon": 11.5645748, "tags": {"addr:city": "M\u00fcnchen", "addr:country": "DE", "addr:housenumber": "124", "addr:postcode": "80333", "addr:street": "Theresienstra\u00dfe", "amenity": "fast_food", "check_date": "2022-11-10", "cuisine": "kebab", "indoor_seating": "yes", "name": "mama's kebaphaus", "opening_hours": "Mo-Sa 10:00-20:00", "outdoor_seating": "no", "payment:cards": "no", "payment:credit_cards": "no", "payment:debit_cards": "no"}}, {"type": "node", "id": 4728140661, "lat": 48.1480045, "lon": 11.554469, "tags": {"addr:city": "M\u00fcnchen", "addr:housenumber": "21", "addr:postcode": "80335", "addr:street": "Nymphenburger Stra\u00dfe", "amenity": "fast_food", "delivery": "yes", "diet:healthy": "yes", "diet:vegan": "yes", "diet:vegetarian": "yes", "email": "kontakt@gymcook.de", "name": "Gym Cook", "opening_hours": "Mo-Su 11:00-21:00", "outdoor_seating": "yes", "phone": "+49 89 59993690", "toilets": "no", "website": "https://www.gymcook.de/", "website:menu": "https://gc-menu.herokuapp.com/general", "website:orders": "https://www.gymcook-muenchen.de/", "wheelchair": "yes"}}, {"type": "node", "id": 4978366170, "lat": 48.1492165, "lon": 11.5631795, "tags": {"addr:city": "M\u00fcnchen", "addr:country": "DE", "addr:housenumber": "62", "addr:postcode": "80333", "addr:street": "Augustenstra\u00dfe", "amenity": "fast_food", "contact:website": "https://sam-s-falafel.business.site/", "cuisine": "falafel", "diet:vegan": "yes", "diet:vegetarian": "yes", "indoor_seating": "yes", "name": "Sam's Falafel", "opening_hours": "Mo-Fr 11:00-22:00; Sa-Su 12:00-22:00", "outdoor_seating": "no", "smoking": "no", "wheelchair": "no"}}, {"type": "node", "id": 4978366180, "lat": 48.1502074, "lon": 11.5638053, "tags": {"addr:city": "M\u00fcnchen", "addr:country": "DE", "addr:housenumber": "74", "addr:postcode": "80333", "addr:street": "Augustenstra\u00dfe", "air_conditioning": "no", "amenity": "fast_food", "check_date": "2022-11-14", "cuisine": "arab", "diet:halal": "yes", "diet:vegetarian": "yes", "indoor_seating": "yes", "name": "Sim Sim", "opening_hours": "Mo-Su 10:00-21:30", "outdoor_seating": "yes", "payment:cash": "yes", "payment:coins": "yes", "payment:contactless": "yes", "payment:credit_cards": "yes", "payment:debit_cards": "yes", "phone": "+49 1521 3549663", "takeaway": "yes", "website": "https://www.sim-sim-falafel.de/", "wheelchair": "no"}}, {"type": "node", "id": 5590492405, "lat": 48.1486771, "lon": 11.5747673, "tags": {"addr:city": "M\u00fcnchen", "addr:country": "DE", "addr:housenumber": "21", "addr:postcode": "80799", "addr:street": "T\u00fcrkenstra\u00dfe", "amenity": "fast_food", "check_date:opening_hours": "2022-06-15", "cuisine": "vietnamese", "indoor_seating": "yes", "name": "Bami House", "opening_hours": "Mo-Su 11:00-22:00", "outdoor_seating": "yes", "payment:cash": "yes", "payment:credit_cards": "no", "payment:debit_cards": "no", "takeaway": "yes", "wheelchair": "limited"}}, {"type": "node", "id": 5765961482, "lat": 48.1487058, "lon": 11.5627943, "tags": {"amenity": "fast_food", "cuisine": "asian", "name": "Yum Yum", "opening_hours": "Mo-Fr 11:00-14:30,17:00-22:00; Sa,Su 13:00-22:00", "outdoor_seating": "yes", "wheelchair": "no"}}, {"type": "node", "id": 5768708440, "lat": 48.1487456, "lon": 11.574811, "tags": {"addr:city": "M\u00fcnchen", "addr:housenumber": "21", "addr:street": "T\u00fcrkenstra\u00dfe", "amenity": "fast_food", "cuisine": "turkish", "name": "K\u00f6fte T\u00fcrkitch Kebap", "opening_hours": "Mo-Sa 11:00-22:00, Su 13:00-22:00", "outdoor_seating": "yes", "takeaway": "yes", "wheelchair": "no"}}, {"type": "node", "id": 5768781554, "lat": 48.1487801, "lon": 11.5628267, "tags": {"addr:city": "M\u00fcnchen", "addr:housenumber": "60", "addr:postcode": "80333", "addr:street": "Augustenstra\u00dfe", "amenity": "fast_food", "cuisine": "german", "diet:vegetarian": "yes", "indoor_seating": "yes", "name": "Sankt Annas", "opening_hours": "Tu-Th 12:00-21:30; Fr 12:00-22:00; Sa 11:00-22:00; Su 11:00-21:00", "outdoor_seating": "yes", "website": "https://www.sanktannas.com/mnchen-augustenstrae", "wheelchair": "no"}}, {"type": "node", "id": 5768799989, "lat": 48.1499491, "lon": 11.5632553, "tags": {"addr:city": "M\u00fcnchen", "addr:housenumber": "67", "addr:postcode": "80333", "addr:street": "Augustenstra\u00dfe", "amenity": "fast_food", "check_date": "2023-01-27", "cuisine": "falafel;shawarma", "diet:halal": "yes", "diet:vegan": "yes", "diet:vegetarian": "yes", "drive_through": "no", "indoor_seating": "yes", "name": "Saimen", "opening_hours": "Mo-Fr 10:30-20:00; Su 11:00-20:00", "outdoor_seating": "no", "payment:credit_cards": "yes", "payment:debit_cards": "yes", "wheelchair": "no"}}, {"type": "node", "id": 5782030755, "lat": 48.1485923, "lon": 11.5736139, "tags": {"addr:city": "M\u00fcnchen", "addr:country": "DE", "addr:housenumber": "56", "addr:postcode": "80333", "addr:street": "Theresienstra\u00dfe", "amenity": "fast_food", "cuisine": "kebab;turkish", "drive_through": "no", "indoor_seating": "yes", "name": "\u00d6zurfa Hausgemachte Spezialit\u00e4ten", "opening_hours": "Mo-Fr 10:00-21:00; Su 11:00-21:00", "outdoor_seating": "yes", "wheelchair": "yes"}}, {"type": "node", "id": 6342884438, "lat": 48.153559, "lon": 11.5544235, "tags": {"amenity": "fast_food", "name": "patatez", "opening_hours": "Mo-Fr 10:00-19:00; Sa 11:00-18:00"}}, {"type": "node", "id": 6387618532, "lat": 48.1564615, "lon": 11.5582203, "tags": {"addr:city": "M\u00fcnchen", "addr:country": "DE", "addr:housenumber": "78a", "addr:postcode": "80797", "addr:street": "Lothstra\u00dfe", "amenity": "fast_food", "cuisine": "pizza", "delivery": "yes", "name": "L'Angelo Italiano", "opening_hours": "Mo-Fr 11:00-23:00; Sa,Su 17:00-23:00", "operator": "Giuseppe Bonello", "phone": "+49 89 200 75 800", "takeaway": "yes", "website": "https://www.langoloitaliano.de/"}}, {"type": "node", "id": 6391813746, "lat": 48.1498182, "lon": 11.5758194, "tags": {"amenity": "fast_food", "check_date": "2023-06-25", "cuisine": "asian", "diet:vegetarian": "yes", "drive_through": "no", "internet_access": "no", "name": "Baoz! Bar", "outdoor_seating": "yes", "payment:cards": "no", "payment:credit_cards": "no", "payment:debit_cards": "no", "wheelchair": "yes"}}, {"type": "node", "id": 6406353537, "lat": 48.1548603, "lon": 11.5752472, "tags": {"addr:city": "M\u00fcnchen", "addr:country": "DE", "addr:housenumber": "19", "addr:postcode": "80799", "addr:street": "Nordendstra\u00dfe", "amenity": "fast_food", "check_date": "2023-07-22", "cuisine": "asian", "name": "Hanshe", "opening_hours": "Mo-Fr 10:00-19:00; Sa 10:30-16:00; PH,Su closed", "takeaway": "yes", "wheelchair": "yes"}}, {"type": "node", "id": 6954359103, "lat": 48.1422036, "lon": 11.560479, "tags": {"amenity": "fast_food", "diet:vegetarian": "yes", "indoor_seating": "no", "name": "Khial's Imbiss", "opening_hours": "Mo-Sa 10:00-20:00", "outdoor_seating": "no", "takeaway": "only", "wheelchair": "yes"}}, {"type": "node", "id": 7743860108, "lat": 48.1469208, "lon": 11.569656, "tags": {"addr:city": "M\u00fcnchen", "addr:housenumber": "33", "addr:postcode": "80333", "addr:street": "Gabelsbergerstra\u00dfe", "amenity": "fast_food", "cuisine": "pizza", "delivery": "no", "drive_through": "no", "name": "PIZZALAB", "takeaway": "only"}}, {"type": "node", "id": 7939005507, "lat": 48.1535438, "lon": 11.5656622, "tags": {"addr:city": "M\u00fcnchen", "addr:country": "DE", "addr:housenumber": "107", "addr:postcode": "80798", "addr:street": "Augustenstra\u00dfe", "amenity": "fast_food", "contact:instagram": "https://www.instagram.com/info_delicious_burger", "contact:phone": "+49 89 1892 1993", "contact:website": "https://leviee.de/restaurant/delicious-burger", "cuisine": "burger", "diet:halal": "yes", "indoor_seating": "yes", "name": "Delicious Burger", "opening_hours": "Mo-Fr 11:00-14:00,17:00-22:00; Sa-Su,PH 13:00-22:00", "outdoor_seating": "yes", "wheelchair": "no"}}, {"type": "node", "id": 9233307561, "lat": 48.1572793, "lon": 11.5739842, "tags": {"amenity": "fast_food", "cuisine": "juice", "name": "Schwabinger Vital Bar", "opening_hours": "Mo-Fr 09:00-17:00; Sa 08:00-15:00", "operator": "Karl Huczala"}}, {"type": "node", "id": 9233307562, "lat": 48.1572248, "lon": 11.5739717, "tags": {"amenity": "fast_food", "cuisine": "sandwich", "name": "Fizzy Bubble", "opening_hours": "Mon-Sat: 12-16"}}, {"type": "node", "id": 9371048622, "lat": 48.1434254, "lon": 11.5601873, "tags": {"amenity": "fast_food", "cuisine": "kebab", "name": "Hammurabi"}}, {"type": "node", "id": 10087595080, "lat": 48.1502379, "lon": 11.5638249, "tags": {"addr:city": "M\u00fcnchen", "addr:housenumber": "74", "addr:postcode": "80333", "addr:street": "Augustenstra\u00dfe", "amenity": "fast_food", "contact:instagram": "https://www.instagram.com/doa_kitchen_farmshop/", "cuisine": "falafel;kebab", "diet:meat": "yes", "diet:vegan": "yes", "diet:vegetarian": "yes", "drive_through": "no", "indoor_seating": "yes", "name": "DOA Kitchen & Farmshop", "opening_hours": "Mo-Fr 08:00-21:00; Sa,Su 09:00-21:00", "outdoor_seating": "no", "payment:cash": "yes", "payment:credit_cards": "yes", "payment:debit_cards": "yes"}}, {"type": "node", "id": 10235158093, "lat": 48.1485754, "lon": 11.5736694, "tags": {"addr:city": "M\u00fcnchen", "addr:country": "DE", "addr:housenumber": "56", "addr:postcode": "80333", "addr:street": "Theresienstra\u00dfe", "amenity": "fast_food", "contact:mobile": "+49 179 8766 786", "contact:website": "https://www.baruts-coffee-and-bakery.de/", "description": "Bowls, Tortillas, Smoothies", "name": "Baruts Coffee and Bakery", "opening_hours": "Mo-Su 06:30-20:00", "operator": "Kadir Barut"}}, {"type": "node", "id": 10315950222, "lat": 48.1599333, "lon": 11.5746084, "tags": {"addr:city": "M\u00fcnchen", "addr:country": "DE", "addr:housenumber": "5", "addr:postcode": "80796", "addr:street": "Kurf\u00fcrstenplatz", "amenity": "fast_food", "capacity": "0", "check_date": "2023-11-19", "contact:phone": "+49 89 2462 5673", "contact:website": "https://forzanapoli.de/", "cuisine": "pizza", "delivery": "no", "description": "Pizza zur Abholung ; Telefonische Vorbestellung m\u00f6glich ; Kein Restaurant", "name": "Forza Napoli", "opening_hours": "Mo-Fr 11:30-14:00,17:00-21:00; Sa 12:00-21:30; Su 12:00-21:00", "takeaway": "only"}}, {"type": "node", "id": 11232208078, "lat": 48.1467271, "lon": 11.5691828, "tags": {"access": "yes", "addr:city": "M\u00fcnchen", "addr:housenumber": "1", "addr:postcode": "80333", "addr:street": "Bernd-Eichinger-Platz", "amenity": "fast_food", "fast_food": "cafeteria", "name": "Cantina Conviva", "opening_hours": "Mo-Fr 9:00-20:00"}}, {"type": "node", "id": 11232223274, "lat": 48.1425749, "lon": 11.5570343, "tags": {"addr:city": "M\u00fcnchen", "addr:housenumber": "26", "addr:postcode": "80335", "addr:street": "Hirtenstra\u00dfe", "amenity": "fast_food", "diet:vegan": "yes", "diet:vegetarian": "yes", "fast_food": "cafeteria", "name": "Zentrum f\u00fcr Naturheilkunde - Kantine", "opening_hours": "Mo-We 08:30-14:00; Th-Su 08:30-16:00"}}]}